CCSDS_OMM_VERS = 2.0
CREATION_DATE  = 
ORIGINATOR     = 

OBJECT_NAME    = HULIANWANG DIGUI 13A
OBJECT_ID      = 2025-258A
CENTER_NAME    = EARTH
REF_FRAME      = TEME
TIME_SYSTEM    = UTC
MEAN_ELEMENT_THEORY = SGP/SGP4

EPOCH          = 2025-12-09T03:12:44.519040
MEAN_MOTION    = 14.19925548
ECCENTRICITY   = .00045892
INCLINATION    = 50.0057
RA_OF_ASC_NODE = 277.2127
ARG_OF_PERICENTER = 347.8692
MEAN_ANOMALY   = 12.2108

EPHEMERIS_TYPE = 0
CLASSIFICATION_TYPE = U
NORAD_CAT_ID   = 66412
ELEMENT_SET_NO = 999
REV_AT_EPOCH   = 414
BSTAR          = .32047821E-3
MEAN_MOTION_DOT = .527E-5
MEAN_MOTION_DDOT = 0

CCSDS_OMM_VERS = 2.0
CREATION_DATE  = 
ORIGINATOR     = 

OBJECT_NAME    = HULIANWANG DIGUI 13B
OBJECT_ID      = 2025-258B
CENTER_NAME    = EARTH
REF_FRAME      = TEME
TIME_SYSTEM    = UTC
MEAN_ELEMENT_THEORY = SGP/SGP4

EPOCH          = 2025-12-09T08:30:42.060672
MEAN_MOTION    = 14.18998764
ECCENTRICITY   = .00064107
INCLINATION    = 50.0063
RA_OF_ASC_NODE = 276.3756
ARG_OF_PERICENTER = 353.6698
MEAN_ANOMALY   = 6.4131

EPHEMERIS_TYPE = 0
CLASSIFICATION_TYPE = U
NORAD_CAT_ID   = 66413
ELEMENT_SET_NO = 999
REV_AT_EPOCH   = 417
BSTAR          = .44989424E-3
MEAN_MOTION_DOT = .788E-5
MEAN_MOTION_DDOT = 0

CCSDS_OMM_VERS = 2.0
CREATION_DATE  = 
ORIGINATOR     = 

OBJECT_NAME    = HULIANWANG DIGUI 13C
OBJECT_ID      = 2025-258C
CENTER_NAME    = EARTH
REF_FRAME      = TEME
TIME_SYSTEM    = UTC
MEAN_ELEMENT_THEORY = SGP/SGP4

EPOCH          = 2025-12-09T03:21:13.066848
MEAN_MOTION    = 14.19246085
ECCENTRICITY   = .00047063
INCLINATION    = 50.0081
RA_OF_ASC_NODE = 277.2503
ARG_OF_PERICENTER = 342.5024
MEAN_ANOMALY   = 17.5724

EPHEMERIS_TYPE = 0
CLASSIFICATION_TYPE = U
NORAD_CAT_ID   = 66414
ELEMENT_SET_NO = 999
REV_AT_EPOCH   = 414
BSTAR          = .41183983E-3
MEAN_MOTION_DOT = .711E-5
MEAN_MOTION_DDOT = 0

CCSDS_OMM_VERS = 2.0
CREATION_DATE  = 
ORIGINATOR     = 

OBJECT_NAME    = HULIANWANG DIGUI 13D
OBJECT_ID      = 2025-258D
CENTER_NAME    = EARTH
REF_FRAME      = TEME
TIME_SYSTEM    = UTC
MEAN_ELEMENT_THEORY = SGP/SGP4

EPOCH          = 2025-12-09T03:09:52.475040
MEAN_MOTION    = 14.20116062
ECCENTRICITY   = .00047716
INCLINATION    = 50.0116
RA_OF_ASC_NODE = 277.2068
ARG_OF_PERICENTER = 0.2986
MEAN_ANOMALY   = 359.7928

EPHEMERIS_TYPE = 0
CLASSIFICATION_TYPE = U
NORAD_CAT_ID   = 66415
ELEMENT_SET_NO = 999
REV_AT_EPOCH   = 414
BSTAR          = .38203452E-3
MEAN_MOTION_DOT = .662E-5
MEAN_MOTION_DDOT = 0

CCSDS_OMM_VERS = 2.0
CREATION_DATE  = 
ORIGINATOR     = 

OBJECT_NAME    = HULIANWANG DIGUI 13E
OBJECT_ID      = 2025-258E
CENTER_NAME    = EARTH
REF_FRAME      = TEME
TIME_SYSTEM    = UTC
MEAN_ELEMENT_THEORY = SGP/SGP4

EPOCH          = 2025-12-09T08:22:19.522848
MEAN_MOTION    = 14.19348736
ECCENTRICITY   = .00039271
INCLINATION    = 50.0045
RA_OF_ASC_NODE = 276.3517
ARG_OF_PERICENTER = 345.3839
MEAN_ANOMALY   = 14.6958

EPHEMERIS_TYPE = 0
CLASSIFICATION_TYPE = U
NORAD_CAT_ID   = 66416
ELEMENT_SET_NO = 999
REV_AT_EPOCH   = 417
BSTAR          = .47173942E-3
MEAN_MOTION_DOT = .84E-5
MEAN_MOTION_DDOT = 0

CCSDS_OMM_VERS = 2.0
CREATION_DATE  = 
ORIGINATOR     = 

OBJECT_NAME    = HULIANWANG DIGUI 13F
OBJECT_ID      = 2025-258F
CENTER_NAME    = EARTH
REF_FRAME      = TEME
TIME_SYSTEM    = UTC
MEAN_ELEMENT_THEORY = SGP/SGP4

EPOCH          = 2025-12-09T08:19:34.689792
MEAN_MOTION    = 14.19543360
ECCENTRICITY   = .0003281
INCLINATION    = 49.9994
RA_OF_ASC_NODE = 276.3221
ARG_OF_PERICENTER = 337.0094
MEAN_ANOMALY   = 23.0670

EPHEMERIS_TYPE = 0
CLASSIFICATION_TYPE = U
NORAD_CAT_ID   = 66417
ELEMENT_SET_NO = 999
REV_AT_EPOCH   = 417
BSTAR          = .4116435E-3
MEAN_MOTION_DOT = .716E-5
MEAN_MOTION_DDOT = 0

CCSDS_OMM_VERS = 2.0
CREATION_DATE  = 
ORIGINATOR     = 

OBJECT_NAME    = HULIANWANG DIGUI 13G
OBJECT_ID      = 2025-258G
CENTER_NAME    = EARTH
REF_FRAME      = TEME
TIME_SYSTEM    = UTC
MEAN_ELEMENT_THEORY = SGP/SGP4

EPOCH          = 2025-12-09T09:52:43.669056
MEAN_MOTION    = 14.19995679
ECCENTRICITY   = .00047642
INCLINATION    = 50.0018
RA_OF_ASC_NODE = 275.9967
ARG_OF_PERICENTER = 355.5056
MEAN_ANOMALY   = 4.5812

EPHEMERIS_TYPE = 0
CLASSIFICATION_TYPE = U
NORAD_CAT_ID   = 66418
ELEMENT_SET_NO = 999
REV_AT_EPOCH   = 418
BSTAR          = .34781431E-3
MEAN_MOTION_DOT = .587E-5
MEAN_MOTION_DDOT = 0

CCSDS_OMM_VERS = 2.0
CREATION_DATE  = 
ORIGINATOR     = 

OBJECT_NAME    = HULIANWANG DIGUI 13H
OBJECT_ID      = 2025-258H
CENTER_NAME    = EARTH
REF_FRAME      = TEME
TIME_SYSTEM    = UTC
MEAN_ELEMENT_THEORY = SGP/SGP4

EPOCH          = 2025-12-08T14:58:00.814656
MEAN_MOTION    = 15.39596954
ECCENTRICITY   = .00012505
INCLINATION    = 53.1596
RA_OF_ASC_NODE = 125.9585
ARG_OF_PERICENTER = 98.9072
MEAN_ANOMALY   = 261.2074

EPHEMERIS_TYPE = 0
CLASSIFICATION_TYPE = U
NORAD_CAT_ID   = 66419
ELEMENT_SET_NO = 999
REV_AT_EPOCH   = 804
BSTAR          = .24249346E-2
MEAN_MOTION_DOT = .97774E-3
MEAN_MOTION_DDOT = 0

CCSDS_OMM_VERS = 2.0
CREATION_DATE  = 
ORIGINATOR     = 

OBJECT_NAME    = HULIANWANG DIGUI 13J
OBJECT_ID      = 2025-258J
CENTER_NAME    = EARTH
REF_FRAME      = TEME
TIME_SYSTEM    = UTC
MEAN_ELEMENT_THEORY = SGP/SGP4

EPOCH          = 2025-12-09T08:06:16.030656
MEAN_MOTION    = 14.20271341
ECCENTRICITY   = .00028332
INCLINATION    = 50.0013
RA_OF_ASC_NODE = 276.2845
ARG_OF_PERICENTER = 351.7519
MEAN_ANOMALY   = 8.3346

EPHEMERIS_TYPE = 0
CLASSIFICATION_TYPE = U
NORAD_CAT_ID   = 66420
ELEMENT_SET_NO = 999
REV_AT_EPOCH   = 416
BSTAR          = .32523297E-3
MEAN_MOTION_DOT = .542E-5
MEAN_MOTION_DDOT = 0

CCSDS_OMM_VERS = 2.0
CREATION_DATE  = 
ORIGINATOR     = 

OBJECT_NAME    = CZ-12 R/B
OBJECT_ID      = 2025-258K
CENTER_NAME    = EARTH
REF_FRAME      = TEME
TIME_SYSTEM    = UTC
MEAN_ELEMENT_THEORY = SGP/SGP4

EPOCH          = 2025-12-09T19:26:26.382912
MEAN_MOTION    = 14.42322931
ECCENTRICITY   = .00645439
INCLINATION    = 49.9957
RA_OF_ASC_NODE = 270.6602
ARG_OF_PERICENTER = 238.8620
MEAN_ANOMALY   = 120.5960

EPHEMERIS_TYPE = 0
CLASSIFICATION_TYPE = U
NORAD_CAT_ID   = 66421
ELEMENT_SET_NO = 999
REV_AT_EPOCH   = 430
BSTAR          = .14504035E-3
MEAN_MOTION_DOT = .324E-5
MEAN_MOTION_DDOT = 0

CCSDS_OMM_VERS = 2.0
CREATION_DATE  = 
ORIGINATOR     = 

OBJECT_NAME    = STARLINK-35617
OBJECT_ID      = 2025-259A
CENTER_NAME    = EARTH
REF_FRAME      = TEME
TIME_SYSTEM    = UTC
MEAN_ELEMENT_THEORY = SGP/SGP4

EPOCH          = 2025-12-09T12:12:10.263168
MEAN_MOTION    = 15.40777762
ECCENTRICITY   = .00010396
INCLINATION    = 43.0035
RA_OF_ASC_NODE = 66.7321
ARG_OF_PERICENTER = 134.0359
MEAN_ANOMALY   = 226.0583

EPHEMERIS_TYPE = 0
CLASSIFICATION_TYPE = U
NORAD_CAT_ID   = 66422
ELEMENT_SET_NO = 999
REV_AT_EPOCH   = 566
BSTAR          = .20546289E-2
MEAN_MOTION_DOT = .86728E-3
MEAN_MOTION_DDOT = 0

CCSDS_OMM_VERS = 2.0
CREATION_DATE  = 
ORIGINATOR     = 

OBJECT_NAME    = STARLINK-35618
OBJECT_ID      = 2025-259B
CENTER_NAME    = EARTH
REF_FRAME      = TEME
TIME_SYSTEM    = UTC
MEAN_ELEMENT_THEORY = SGP/SGP4

EPOCH          = 2025-12-10T14:35:56.842656
MEAN_MOTION    = 15.40711706
ECCENTRICITY   = .00019576
INCLINATION    = 43.0022
RA_OF_ASC_NODE = 60.3646
ARG_OF_PERICENTER = 274.9313
MEAN_ANOMALY   = 85.1320

EPHEMERIS_TYPE = 0
CLASSIFICATION_TYPE = U
NORAD_CAT_ID   = 66423
ELEMENT_SET_NO = 999
REV_AT_EPOCH   = 583
BSTAR          = .18368317E-2
MEAN_MOTION_DOT = .77237E-3
MEAN_MOTION_DDOT = 0

