HULIANWANG DIGUI 13A    
1 66412U 25258A   25343.13384860  .00000527  00000+0  32048-3 0  9994
2 66412  50.0057 277.2127 0004589 347.8692  12.2108 14.19925548  4142
HULIANWANG DIGUI 13B    
1 66413U 25258B   25343.35465348  .00000788  00000+0  44989-3 0  9996
2 66413  50.0063 276.3756 0006410 353.6698   6.4131 14.18998764  4177
HULIANWANG DIGUI 13C    
1 66414U 25258C   25343.13973457  .00000711  00000+0  41184-3 0  9998
2 66414  50.0081 277.2503 0004706 342.5024  17.5724 14.19246085  4145
HULIANWANG DIGUI 13D    
1 66415U 25258D   25343.13185735  .00000662  00000+0  38203-3 0  9996
2 66415  50.0116 277.2068 0004771   0.2986 359.7928 14.20116062  4148
HULIANWANG DIGUI 13E    
1 66416U 25258E   25343.34883707  .00000840  00000+0  47174-3 0  9999
2 66416  50.0045 276.3517 0003927 345.3839  14.6958 14.19348736  4177
HULIANWANG DIGUI 13F    
1 66417U 25258F   25343.34692928  .00000716  00000+0  41164-3 0  9998
2 66417  49.9994 276.3221 0003281 337.0094  23.0670 14.19543360  4179
HULIANWANG DIGUI 13G    
1 66418U 25258G   25343.41161654  .00000587  00000+0  34781-3 0  9997
2 66418  50.0018 275.9967 0004764 355.5056   4.5812 14.19995679  4189
HULIANWANG DIGUI 13H    
1 66419U 25258H   25342.62362054  .00097774  00000+0  24249-2 0  9998
2 66419  53.1596 125.9585 0001250  98.9072 261.2074 15.39596954  8045
HULIANWANG DIGUI 13J    
1 66420U 25258J   25343.33768554  .00000542  00000+0  32523-3 0  9996
2 66420  50.0013 276.2845 0002833 351.7519   8.3346 14.20271341  4160
CZ-12 R/B               
1 66421U 25258K   25343.81002758  .00000324  00000+0  14504-3 0  9994
2 66421  49.9957 270.6602 0064543 238.8620 120.5960 14.42322931  4309
STARLINK-35617          
1 66422U 25259A   25343.50845212  .00086728  00000+0  20546-2 0  9996
2 66422  43.0035  66.7321 0001039 134.0359 226.0583 15.40777762  5669
STARLINK-35618          
1 66423U 25259B   25344.60829679  .00077237  00000+0  18368-2 0  9992
2 66423  43.0022  60.3646 0001957 274.9313  85.1320 15.40711706  5837
